[{"OBJECT_NAME":"STARLINK-30939","OBJECT_ID":"2023-178V","EPOCH":"2026-03-09T23:17:11.646816","MEAN_MOTION":15.3017535,"ECCENTRICITY":9.023e-5,"INCLINATION":53.1615,"RA_OF_ASC_NODE":359.8204,"ARG_OF_PERICENTER":65.0576,"MEAN_ANOMALY":295.0518,"EPHEMERIS_TYPE":0,"CLASSIFICATION_TYPE":"U","NORAD_CAT_ID":58393,"ELEMENT_SET_NO":999,"REV_AT_EPOCH":12980,"BSTAR":0.00011407549,"MEAN_MOTION_DOT":3.019e-5,"MEAN_MOTION_DDOT":0},{"OBJECT_NAME":"SCS-01 J","OBJECT_ID":"2025-100J","EPOCH":"2026-03-09T22:31:25.904064","MEAN_MOTION":15.31338011,"ECCENTRICITY":0.00063909,"INCLINATION":97.3693,"RA_OF_ASC_NODE":145.4824,"ARG_OF_PERICENTER":272.025,"MEAN_ANOMALY":88.026,"EPHEMERIS_TYPE":0,"CLASSIFICATION_TYPE":"U","NORAD_CAT_ID":63990,"ELEMENT_SET_NO":999,"REV_AT_EPOCH":4563,"BSTAR":0.0011832888,"MEAN_MOTION_DOT":0.00035886,"MEAN_MOTION_DDOT":0}]
